CCSDS_OMM_VERS = 2.0
CREATION_DATE  = 
ORIGINATOR     = 

OBJECT_NAME    = UNKNOWN
OBJECT_ID      = 
CENTER_NAME    = EARTH
REF_FRAME      = TEME
TIME_SYSTEM    = UTC
MEAN_ELEMENT_THEORY = SGP/SGP4

EPOCH          = 2025-10-21T01:26:07.211616
MEAN_MOTION    = 13.82049986
ECCENTRICITY   = .0564472
INCLINATION    = 65.7707
RA_OF_ASC_NODE = 162.3734
ARG_OF_PERICENTER = 333.1851
MEAN_ANOMALY   = 24.1021

EPHEMERIS_TYPE = 0
CLASSIFICATION_TYPE = U
NORAD_CAT_ID   = 81052
ELEMENT_SET_NO = 999
REV_AT_EPOCH   = 59303
BSTAR          = .21562E-2
MEAN_MOTION_DOT = .7959E-4
MEAN_MOTION_DDOT = 0

CCSDS_OMM_VERS = 2.0
CREATION_DATE  = 
ORIGINATOR     = 

OBJECT_NAME    = UNKNOWN
OBJECT_ID      = 
CENTER_NAME    = EARTH
REF_FRAME      = TEME
TIME_SYSTEM    = UTC
MEAN_ELEMENT_THEORY = SGP/SGP4

EPOCH          = 2025-10-28T10:59:33.242496
MEAN_MOTION    = 13.60064135
ECCENTRICITY   = .0060802
INCLINATION    = 100.3797
RA_OF_ASC_NODE = 199.8516
ARG_OF_PERICENTER = 155.5692
MEAN_ANOMALY   = 204.8348

EPHEMERIS_TYPE = 0
CLASSIFICATION_TYPE = U
NORAD_CAT_ID   = 81069
ELEMENT_SET_NO = 999
REV_AT_EPOCH   = 50977
BSTAR          = .55642E-2
MEAN_MOTION_DOT = .4159E-4
MEAN_MOTION_DDOT = 0

CCSDS_OMM_VERS = 2.0
CREATION_DATE  = 
ORIGINATOR     = 

OBJECT_NAME    = UNKNOWN
OBJECT_ID      = 
CENTER_NAME    = EARTH
REF_FRAME      = TEME
TIME_SYSTEM    = UTC
MEAN_ELEMENT_THEORY = SGP/SGP4

EPOCH          = 2025-10-25T13:07:36.919776
MEAN_MOTION    = 11.22440022
ECCENTRICITY   = .017202
INCLINATION    = 65.1146
RA_OF_ASC_NODE = 335.4290
ARG_OF_PERICENTER = 12.8631
MEAN_ANOMALY   = 141.3726

EPHEMERIS_TYPE = 0
CLASSIFICATION_TYPE = U
NORAD_CAT_ID   = 81078
ELEMENT_SET_NO = 999
REV_AT_EPOCH   = 48921
BSTAR          = -.49508E-2
MEAN_MOTION_DOT = -.206E-5
MEAN_MOTION_DDOT = 0

CCSDS_OMM_VERS = 2.0
CREATION_DATE  = 
ORIGINATOR     = 

OBJECT_NAME    = UNKNOWN
OBJECT_ID      = 
CENTER_NAME    = EARTH
REF_FRAME      = TEME
TIME_SYSTEM    = UTC
MEAN_ELEMENT_THEORY = SGP/SGP4

EPOCH          = 2025-10-28T10:32:17.186784
MEAN_MOTION    = 12.92956365
ECCENTRICITY   = .0027736
INCLINATION    = 90.2527
RA_OF_ASC_NODE = 3.0055
ARG_OF_PERICENTER = 145.9582
MEAN_ANOMALY   = 214.3322

EPHEMERIS_TYPE = 0
CLASSIFICATION_TYPE = U
NORAD_CAT_ID   = 81134
ELEMENT_SET_NO = 999
REV_AT_EPOCH   = 45675
BSTAR          = .61885E-4
MEAN_MOTION_DOT = .24E-6
MEAN_MOTION_DDOT = 0

CCSDS_OMM_VERS = 2.0
CREATION_DATE  = 
ORIGINATOR     = 

OBJECT_NAME    = UNKNOWN
OBJECT_ID      = 
CENTER_NAME    = EARTH
REF_FRAME      = TEME
TIME_SYSTEM    = UTC
MEAN_ELEMENT_THEORY = SGP/SGP4

EPOCH          = 2025-10-26T23:52:01.369920
MEAN_MOTION    = 13.75422410
ECCENTRICITY   = .0064089
INCLINATION    = 100.4207
RA_OF_ASC_NODE = 137.7304
ARG_OF_PERICENTER = 40.0366
MEAN_ANOMALY   = 320.5479

EPHEMERIS_TYPE = 0
CLASSIFICATION_TYPE = U
NORAD_CAT_ID   = 81161
ELEMENT_SET_NO = 999
REV_AT_EPOCH   = 54970
BSTAR          = .18543E-2
MEAN_MOTION_DOT = .1758E-4
MEAN_MOTION_DDOT = 0

CCSDS_OMM_VERS = 2.0
CREATION_DATE  = 
ORIGINATOR     = 

OBJECT_NAME    = UNKNOWN
OBJECT_ID      = 
CENTER_NAME    = EARTH
REF_FRAME      = TEME
TIME_SYSTEM    = UTC
MEAN_ELEMENT_THEORY = SGP/SGP4

EPOCH          = 2025-10-25T23:11:04.611840
MEAN_MOTION    = 14.40072507
ECCENTRICITY   = .0061143
INCLINATION    = 70.5243
RA_OF_ASC_NODE = 23.8548
ARG_OF_PERICENTER = 73.4230
MEAN_ANOMALY   = 287.3606

EPHEMERIS_TYPE = 0
CLASSIFICATION_TYPE = U
NORAD_CAT_ID   = 81228
ELEMENT_SET_NO = 999
REV_AT_EPOCH   = 61921
BSTAR          = .19748E-2
MEAN_MOTION_DOT = .6324E-4
MEAN_MOTION_DDOT = 0

CCSDS_OMM_VERS = 2.0
CREATION_DATE  = 
ORIGINATOR     = 

OBJECT_NAME    = UNKNOWN
OBJECT_ID      = 
CENTER_NAME    = EARTH
REF_FRAME      = TEME
TIME_SYSTEM    = UTC
MEAN_ELEMENT_THEORY = SGP/SGP4

EPOCH          = 2025-10-27T14:51:03.189888
MEAN_MOTION    = 14.01057686
ECCENTRICITY   = .0075008
INCLINATION    = 100.3901
RA_OF_ASC_NODE = 356.4085
ARG_OF_PERICENTER = 192.5825
MEAN_ANOMALY   = 167.3464

EPHEMERIS_TYPE = 0
CLASSIFICATION_TYPE = U
NORAD_CAT_ID   = 81254
ELEMENT_SET_NO = 999
REV_AT_EPOCH   = 60643
BSTAR          = .24127E-2
MEAN_MOTION_DOT = .3653E-4
MEAN_MOTION_DDOT = 0

CCSDS_OMM_VERS = 2.0
CREATION_DATE  = 
ORIGINATOR     = 

OBJECT_NAME    = UNKNOWN
OBJECT_ID      = 
CENTER_NAME    = EARTH
REF_FRAME      = TEME
TIME_SYSTEM    = UTC
MEAN_ELEMENT_THEORY = SGP/SGP4

EPOCH          = 2025-10-27T14:50:09.957984
MEAN_MOTION    = 14.19769486
ECCENTRICITY   = .0208631
INCLINATION    = 98.1348
RA_OF_ASC_NODE = 3.7424
ARG_OF_PERICENTER = 159.9815
MEAN_ANOMALY   = 200.9702

EPHEMERIS_TYPE = 0
CLASSIFICATION_TYPE = U
NORAD_CAT_ID   = 81279
ELEMENT_SET_NO = 999
REV_AT_EPOCH   = 45605
BSTAR          = .80194E-3
MEAN_MOTION_DOT = .2072E-4
MEAN_MOTION_DDOT = 0

CCSDS_OMM_VERS = 2.0
CREATION_DATE  = 
ORIGINATOR     = 

OBJECT_NAME    = UNKNOWN
OBJECT_ID      = 
CENTER_NAME    = EARTH
REF_FRAME      = TEME
TIME_SYSTEM    = UTC
MEAN_ELEMENT_THEORY = SGP/SGP4

EPOCH          = 2025-10-28T00:50:33.826272
MEAN_MOTION    = 13.76665952
ECCENTRICITY   = .0096013
INCLINATION    = 66.7603
RA_OF_ASC_NODE = 45.0314
ARG_OF_PERICENTER = 261.0942
MEAN_ANOMALY   = 278.9576

EPHEMERIS_TYPE = 0
CLASSIFICATION_TYPE = U
NORAD_CAT_ID   = 81301
ELEMENT_SET_NO = 999
REV_AT_EPOCH   = 60006
BSTAR          = .49797E-3
MEAN_MOTION_DOT = .432E-5
MEAN_MOTION_DDOT = 0

